******** Week 115 almanac for PRN-18 ********
ID:                         18
Health:                     000
Eccentricity:               0.1575469971E-002
Time of Applicability(s):  503808.0000
Orbital Inclination(rad):   0.9684176509
Rate of Right Ascen(r/s):  -0.8114623721E-008
SQRT(A)  (m 1/2):           5153.610352
Right Ascen at Week(rad):   0.2355032395E+001
Argument of Perigee(rad):   2.881648823
Mean Anom(rad):            -0.2855224356E+001
Af0(s):                     0.3452301025E-003
Af1(s/s):                  -0.3637978807E-011
week:                        115

******** Week 115 almanac for PRN-19 ********
ID:                         19
Health:                     000
Eccentricity:               0.9329319000E-002
Time of Applicability(s):  503808.0000
Orbital Inclination(rad):   0.9802820335
Rate of Right Ascen(r/s):  -0.7988904198E-008
SQRT(A)  (m 1/2):           5153.593750
Right Ascen at Week(rad):   0.1391451278E+001
Argument of Perigee(rad):   1.869651812
Mean Anom(rad):             0.1478779201E+001
Af0(s):                     0.1811981201E-004
Af1(s/s):                   0.3637978807E-011
week:                        115

******** Week 115 almanac for PRN-20 ********
ID:                         20
Health:                     000
Eccentricity:               0.6092071533E-002
Time of Applicability(s):  503808.0000
Orbital Inclination(rad):   0.9390143551
Rate of Right Ascen(r/s):  -0.7897471819E-008
SQRT(A)  (m 1/2):           5151.698242
Right Ascen at Week(rad):  -0.3049273675E+001
Argument of Perigee(rad):   3.041531866
Mean Anom(rad):            -0.2407255902E+001
Af0(s):                     0.5207061768E-003
Af1(s/s):                   0.0000000000E+000
week:                        115

******** Week 115 almanac for PRN-21 ********
ID:                         21
Health:                     000
Eccentricity:               0.2401494980E-001
Time of Applicability(s):  503808.0000
Orbital Inclination(rad):   0.9574281166
Rate of Right Ascen(r/s):  -0.8217485148E-008
SQRT(A)  (m 1/2):           5153.622559
Right Ascen at Week(rad):   0.2259176572E+001
Argument of Perigee(rad):  -1.122055639
Mean Anom(rad):            -0.8337545109E+000
Af0(s):                     0.1277923584E-003
Af1(s/s):                   0.3637978807E-011
week:                        115

******** Week 115 almanac for PRN-22 ********
ID:                         22
Health:                     000
Eccentricity:               0.6980419159E-002
Time of Applicability(s):  503808.0000
Orbital Inclination(rad):   0.9357246853
Rate of Right Ascen(r/s):  -0.7886042771E-008
SQRT(A)  (m 1/2):           5153.755371
Right Ascen at Week(rad):  -0.3002945283E+001
Argument of Perigee(rad):  -0.934728721
Mean Anom(rad):            -0.2003513357E+001
Af0(s):                    -0.5788803101E-003
Af1(s/s):                   0.1091393642E-010
week:                        115

******** Week 115 almanac for PRN-23 ********
ID:                         23
Health:                     000
Eccentricity:               0.1325130463E-002
Time of Applicability(s):  503808.0000
Orbital Inclination(rad):   0.9649721862
Rate of Right Ascen(r/s):  -0.7600316584E-008
SQRT(A)  (m 1/2):           5153.617676
Right Ascen at Week(rad):  -0.2928964790E+001
Argument of Perigee(rad):   2.618351657
Mean Anom(rad):             0.2691693241E+001
Af0(s):                     0.9250640869E-004
Af1(s/s):                  -0.3637978807E-011
week:                        115

******** Week 115 almanac for PRN-24 ********
ID:                         24
Health:                     000
Eccentricity:               0.1117563248E-001
Time of Applicability(s):  503808.0000
Orbital Inclination(rad):   0.9347060262
Rate of Right Ascen(r/s):  -0.8148910863E-008
SQRT(A)  (m 1/2):           5153.654785
Right Ascen at Week(rad):  -0.8790447693E+000
Argument of Perigee(rad):   0.742070696
Mean Anom(rad):            -0.2829730539E+001
Af0(s):                     0.1487731934E-003
Af1(s/s):                   0.1818989404E-010
week:                        115

******** Week 115 almanac for PRN-25 ********
ID:                         25
Health:                     000
Eccentricity:               0.9844303131E-002
Time of Applicability(s):  503808.0000
Orbital Inclination(rad):   0.9609934236
Rate of Right Ascen(r/s):  -0.7600316584E-008
SQRT(A)  (m 1/2):           5153.568359
Right Ascen at Week(rad):   0.2362944605E+000
Argument of Perigee(rad):   0.970631961
Mean Anom(rad):             0.1499447869E+001
Af0(s):                     0.1621246338E-003
Af1(s/s):                   0.7275957614E-011
week:                        115

******** Week 115 almanac for PRN-26 ********
ID:                         26
Health:                     000
Eccentricity:               0.5909919739E-002
Time of Applicability(s):  503808.0000
Orbital Inclination(rad):   0.9419025533
Rate of Right Ascen(r/s):  -0.7794610391E-008
SQRT(A)  (m 1/2):           5153.533691
Right Ascen at Week(rad):   0.1937152584E+000
Argument of Perigee(rad):   0.303030115
Mean Anom(rad):             0.8190034281E+000
Af0(s):                     0.1029968262E-003
Af1(s/s):                   0.3637978807E-011
week:                        115

******** Week 115 almanac for PRN-27 ********
ID:                         27
Health:                     000
Eccentricity:               0.9446144104E-002
Time of Applicability(s):  503808.0000
Orbital Inclination(rad):   0.9755482647
Rate of Right Ascen(r/s):  -0.8011762293E-008
SQRT(A)  (m 1/2):           5153.641113
Right Ascen at Week(rad):   0.1285368417E+001
Argument of Perigee(rad):   0.634988276
Mean Anom(rad):            -0.1024104075E+001
Af0(s):                    -0.1525878906E-003
Af1(s/s):                  -0.7275957614E-011
week:                        115

******** Week 115 almanac for PRN-28 ********
ID:                         28
Health:                     063
Eccentricity:               0.1748275757E-001
Time of Applicability(s):  503808.0000
Orbital Inclination(rad):   0.9727859009
Rate of Right Ascen(r/s):  -0.7508884204E-008
SQRT(A)  (m 1/2):           5153.691895
Right Ascen at Week(rad):   0.3323824778E+000
Argument of Perigee(rad):  -1.345497393
Mean Anom(rad):            -0.4398334128E+000
Af0(s):                     0.5483627319E-003
Af1(s/s):                  -0.7275957614E-011
week:                        115

******** Week 115 almanac for PRN-29 ********
ID:                         29
Health:                     000
Eccentricity:               0.1951694489E-002
Time of Applicability(s):  503808.0000
Orbital Inclination(rad):   0.9836196402
Rate of Right Ascen(r/s):  -0.7954617056E-008
SQRT(A)  (m 1/2):           5153.575195
Right Ascen at Week(rad):   0.1358836209E+001
Argument of Perigee(rad):   2.190258291
Mean Anom(rad):            -0.8648067611E+000
Af0(s):                    -0.3700256348E-003
Af1(s/s):                  -0.7275957614E-011
week:                        115

******** Week 115 almanac for PRN-30 ********
ID:                         30
Health:                     000
Eccentricity:               0.5316257477E-002
Time of Applicability(s):  503808.0000
Orbital Inclination(rad):   0.9365815574
Rate of Right Ascen(r/s):  -0.8068907531E-008
SQRT(A)  (m 1/2):           5153.618164
Right Ascen at Week(rad):  -0.7835436046E+000
Argument of Perigee(rad):  -2.754731387
Mean Anom(rad):             0.2337777733E+001
Af0(s):                    -0.4434585571E-003
Af1(s/s):                  -0.3637978807E-011
week:                        115

******** Week 115 almanac for PRN-31 ********
ID:                         31
Health:                     000
Eccentricity:               0.1003837585E-001
Time of Applicability(s):  503808.0000
Orbital Inclination(rad):   0.9556784198
Rate of Right Ascen(r/s):  -0.7874613724E-008
SQRT(A)  (m 1/2):           5153.493652
Right Ascen at Week(rad):  -0.7831001883E+000
Argument of Perigee(rad):   0.266223939
Mean Anom(rad):             0.1948266829E+001
Af0(s):                    -0.1249313354E-003
Af1(s/s):                  -0.3637978807E-011
week:                        115

******** Week 115 almanac for PRN-32 ********
ID:                         32
Health:                     000
Eccentricity:               0.5028724670E-002
Time of Applicability(s):  503808.0000
Orbital Inclination(rad):   0.9570086688
Rate of Right Ascen(r/s):  -0.7806039439E-008
SQRT(A)  (m 1/2):           5153.625488
Right Ascen at Week(rad):  -0.1862935403E+001
Argument of Perigee(rad):  -2.360082622
Mean Anom(rad):            -0.2686061779E+000
Af0(s):                     0.1716613770E-004
Af1(s/s):                   0.0000000000E+000
week:                        115